[{"OBJECT_NAME":"CONTINUUM-1","OBJECT_ID":"2023-001AN","EPOCH":"2026-03-09T23:17:35.458656","MEAN_MOTION":15.27981258,"ECCENTRICITY":0.00109493,"INCLINATION":97.3456,"RA_OF_ASC_NODE":133.3964,"ARG_OF_PERICENTER":60.1976,"MEAN_ANOMALY":300.0351,"EPHEMERIS_TYPE":0,"CLASSIFICATION_TYPE":"U","NORAD_CAT_ID":55045,"ELEMENT_SET_NO":999,"REV_AT_EPOCH":17709,"BSTAR":0.00052859897,"MEAN_MOTION_DOT":0.00014395,"MEAN_MOTION_DDOT":0},{"OBJECT_NAME":"STARLINK-30894","OBJECT_ID":"2023-178B","EPOCH":"2026-03-09T05:48:55.749024","MEAN_MOTION":15.30184445,"ECCENTRICITY":0.00011491,"INCLINATION":53.1621,"RA_OF_ASC_NODE":3.1013,"ARG_OF_PERICENTER":109.9071,"MEAN_ANOMALY":250.2054,"EPHEMERIS_TYPE":0,"CLASSIFICATION_TYPE":"U","NORAD_CAT_ID":58375,"ELEMENT_SET_NO":999,"REV_AT_EPOCH":12975,"BSTAR":3.8033874e-5,"MEAN_MOTION_DOT":7.67e-6,"MEAN_MOTION_DDOT":0}]
